{
  "type": "FeatureCollection",
  "features": [
    {
      "type": "Feature",
      "properties": {
        "norad_id": 28051,
        "name": "IRS-P6 (RESOURCESAT-1)",
        "group": "resource",
        "lat": -26.325464675925378,
        "lon": 29.94396771176952,
        "alt_km": 816.2134220554444,
        "timestamp": "2025-12-11T08:58:26.770598+00:00",
        "meta_object_name": "IRS-P6 (RESOURCESAT-1)",
        "meta_object_id": "2003-046A",
        "meta_epoch": "2025-12-11T04:25:05.256768",
        "meta_mean_motion": 14.36073139,
        "meta_eccentricity": 0.0064036,
        "meta_inclination": 98.2177,
        "meta_ra_of_asc_node": 25.6627,
        "meta_arg_of_pericenter": 185.3662,
        "meta_mean_anomaly": 246.9033,
        "meta_ephemeris_type": 0,
        "meta_classification_type": "U",
        "meta_norad_cat_id": 28051,
        "meta_element_set_no": 999,
        "meta_rev_at_epoch": 15354,
        "meta_bstar": 5.0825e-05,
        "meta_mean_motion_dot": 1.1e-06,
        "meta_mean_motion_ddot": 0,
        "tle_line1": "1 28051U 03046A   25345.18408862  .00000110  00000+0  50825-4 0  9990",
        "tle_line2": "2 28051  98.2177  25.6627 0064036 185.3662 246.9033 14.36073139153542"
      },
      "geometry": {
        "type": "Point",
        "coordinates": [
          29.94396771176952,
          -26.325464675925378
        ]
      }
    },
    {
      "type": "Feature",
      "properties": {
        "norad_id": 28220,
        "name": "SHIYAN-1 (SY-1)",
        "group": "resource",
        "lat": 63.99751769777346,
        "lon": -116.64451637833338,
        "alt_km": 478.4412119774079,
        "timestamp": "2025-12-11T08:58:26.770609+00:00",
        "meta_object_name": "SHIYAN-1 (SY-1)",
        "meta_object_id": "2004-012A",
        "meta_epoch": "2025-12-11T03:45:31.275072",
        "meta_mean_motion": 15.28073699,
        "meta_eccentricity": 0.0005674,
        "meta_inclination": 97.8932,
        "meta_ra_of_asc_node": 46.601,
        "meta_arg_of_pericenter": 332.2791,
        "meta_mean_anomaly": 27.8144,
        "meta_ephemeris_type": 0,
        "meta_classification_type": "U",
        "meta_norad_cat_id": 28220,
        "meta_element_set_no": 999,
        "meta_rev_at_epoch": 18232,
        "meta_bstar": 0.00071891,
        "meta_mean_motion_dot": 0.00019641,
        "meta_mean_motion_ddot": 0,
        "tle_line1": "1 28220U 04012A   25345.15661198  .00019641  00000+0  71891-3 0  9996",
        "tle_line2": "2 28220  97.8932  46.6010 0005674 332.2791  27.8144 15.28073699182322"
      },
      "geometry": {
        "type": "Point",
        "coordinates": [
          -116.64451637833338,
          63.99751769777346
        ]
      }
    },
    {
      "type": "Feature",
      "properties": {
        "norad_id": 28376,
        "name": "AURA",
        "group": "resource",
        "lat": 61.00239452972846,
        "lon": 130.90001666656954,
        "alt_km": 683.4175525034079,
        "timestamp": "2025-12-11T08:58:26.770620+00:00",
        "meta_object_name": "AURA",
        "meta_object_id": "2004-026A",
        "meta_epoch": "2025-12-11T03:30:19.797408",
        "meta_mean_motion": 14.60940475,
        "meta_eccentricity": 0.0001208,
        "meta_inclination": 98.3183,
        "meta_ra_of_asc_node": 295.3653,
        "meta_arg_of_pericenter": 94.2738,
        "meta_mean_anomaly": 265.86,
        "meta_ephemeris_type": 0,
        "meta_classification_type": "U",
        "meta_norad_cat_id": 28376,
        "meta_element_set_no": 999,
        "meta_rev_at_epoch": 13875,
        "meta_bstar": 0.00035654,
        "meta_mean_motion_dot": 1.699e-05,
        "meta_mean_motion_ddot": 0,
        "tle_line1": "1 28376U 04026A   25345.14606247  .00001699  00000+0  35654-3 0  9997",
        "tle_line2": "2 28376  98.3183 295.3653 0001208  94.2738 265.8600 14.60940475138758"
      },
      "geometry": {
        "type": "Point",
        "coordinates": [
          130.90001666656954,
          61.00239452972846
        ]
      }
    },
    {
      "type": "Feature",
      "properties": {
        "norad_id": 28649,
        "name": "IRS-P5 (CARTOSAT-1)",
        "group": "resource",
        "lat": -6.337922819363476,
        "lon": -168.99635333828152,
        "alt_km": 601.2603724862256,
        "timestamp": "2025-12-11T08:58:26.770631+00:00",
        "meta_object_name": "IRS-P5 (CARTOSAT-1)",
        "meta_object_id": "2005-017A",
        "meta_epoch": "2025-12-10T19:15:01.916928",
        "meta_mean_motion": 14.90393741,
        "meta_eccentricity": 0.00013333,
        "meta_inclination": 97.5497,
        "meta_ra_of_asc_node": 11.3012,
        "meta_arg_of_pericenter": 46.6199,
        "meta_mean_anomaly": 313.5131,
        "meta_ephemeris_type": 0,
        "meta_classification_type": "U",
        "meta_norad_cat_id": 28649,
        "meta_element_set_no": 999,
        "meta_rev_at_epoch": 11575,
        "meta_bstar": 0.00024901803,
        "meta_mean_motion_dot": 2.372e-05,
        "meta_mean_motion_ddot": 0,
        "tle_line1": "1 28649U 05017A   25344.80210552  .00002372  00000+0  24902-3 0  9996",
        "tle_line2": "2 28649  97.5497  11.3012 0001333  46.6199 313.5131 14.90393741115752"
      },
      "geometry": {
        "type": "Point",
        "coordinates": [
          -168.99635333828152,
          -6.337922819363476
        ]
      }
    },
    {
      "type": "Feature",
      "properties": {
        "norad_id": 28893,
        "name": "SINAH 1",
        "group": "resource",
        "lat": -49.94219612160199,
        "lon": 123.87642668984536,
        "alt_km": 697.8646345474835,
        "timestamp": "2025-12-11T08:58:26.770643+00:00",
        "meta_object_name": "SINAH 1",
        "meta_object_id": "2005-043D",
        "meta_epoch": "2025-12-11T04:17:04.877952",
        "meta_mean_motion": 14.63959696,
        "meta_eccentricity": 0.0015264,
        "meta_inclination": 98.2601,
        "meta_ra_of_asc_node": 113.7316,
        "meta_arg_of_pericenter": 141.6219,
        "meta_mean_anomaly": 218.6072,
        "meta_ephemeris_type": 0,
        "meta_classification_type": "U",
        "meta_norad_cat_id": 28893,
        "meta_element_set_no": 999,
        "meta_rev_at_epoch": 7301,
        "meta_bstar": 0.00015992,
        "meta_mean_motion_dot": 7.89e-06,
        "meta_mean_motion_ddot": 0,
        "tle_line1": "1 28893U 05043D   25345.17852868  .00000789  00000+0  15992-3 0  9998",
        "tle_line2": "2 28893  98.2601 113.7316 0015264 141.6219 218.6072 14.63959696 73017"
      },
      "geometry": {
        "type": "Point",
        "coordinates": [
          123.87642668984536,
          -49.94219612160199
        ]
      }
    },
    {
      "type": "Feature",
      "properties": {
        "norad_id": 29079,
        "name": "EROS B",
        "group": "resource",
        "lat": 11.886028557606835,
        "lon": -76.56120536759639,
        "alt_km": 367.7572562503283,
        "timestamp": "2025-12-11T08:58:26.770654+00:00",
        "meta_object_name": "EROS B",
        "meta_object_id": "2006-014A",
        "meta_epoch": "2025-12-11T03:39:50.503968",
        "meta_mean_motion": 15.67587565,
        "meta_eccentricity": 0.0001885,
        "meta_inclination": 97.3471,
        "meta_ra_of_asc_node": 101.651,
        "meta_arg_of_pericenter": 293.8286,
        "meta_mean_anomaly": 66.2778,
        "meta_ephemeris_type": 0,
        "meta_classification_type": "U",
        "meta_norad_cat_id": 29079,
        "meta_element_set_no": 999,
        "meta_rev_at_epoch": 9055,
        "meta_bstar": 0.0019268,
        "meta_mean_motion_dot": 0.00214495,
        "meta_mean_motion_ddot": 0,
        "tle_line1": "1 29079U 06014A   25345.15266787  .00214495  00000+0  19268-2 0  9991",
        "tle_line2": "2 29079  97.3471 101.6510 0001885 293.8286  66.2778 15.67587565 90554"
      },
      "geometry": {
        "type": "Point",
        "coordinates": [
          -76.56120536759639,
          11.886028557606835
        ]
      }
    },
    {
      "type": "Feature",
      "properties": {
        "norad_id": 29228,
        "name": "RESURS-DK 1",
        "group": "resource",
        "lat": -5.956769987364295,
        "lon": 103.18281491717704,
        "alt_km": 533.1263188101793,
        "timestamp": "2025-12-11T08:58:26.770665+00:00",
        "meta_object_name": "RESURS-DK 1",
        "meta_object_id": "2006-021A",
        "meta_epoch": "2025-12-10T18:42:49.206816",
        "meta_mean_motion": 15.1214377,
        "meta_eccentricity": 0.00074309,
        "meta_inclination": 69.9334,
        "meta_ra_of_asc_node": 106.9034,
        "meta_arg_of_pericenter": 261.2716,
        "meta_mean_anomaly": 98.7608,
        "meta_ephemeris_type": 0,
        "meta_classification_type": "U",
        "meta_norad_cat_id": 29228,
        "meta_element_set_no": 999,
        "meta_rev_at_epoch": 7408,
        "meta_bstar": 0.00025580505,
        "meta_mean_motion_dot": 4.317e-05,
        "meta_mean_motion_ddot": 0,
        "tle_line1": "1 29228U 06021A   25344.77973619  .00004317  00000+0  25581-3 0  9997",
        "tle_line2": "2 29228  69.9334 106.9034 0007430 261.2716  98.7608 15.12143770 74089"
      },
      "geometry": {
        "type": "Point",
        "coordinates": [
          103.18281491717704,
          -5.956769987364295
        ]
      }
    }
  ]
}